{
    "links": {
        "self": "http://www.neowsapp.com/rest/v1/neo/3760215?api_key=iIulBulltgU6a56xZRHN4H3l9WmuAYTsLGpBGhQ2"
    },
    "id": "3760215",
    "neo_reference_id": "3760215",
    "name": "(2016 TO)",
    "designation": "2016 TO",
    "nasa_jpl_url": "http://ssd.jpl.nasa.gov/sbdb.cgi?sstr=3760215",
    "absolute_magnitude_h": 23.0,
    "estimated_diameter": {
        "kilometers": {
            "estimated_diameter_min": 0.0667659413,
            "estimated_diameter_max": 0.1492931834
        },
        "meters": {
            "estimated_diameter_min": 66.7659413495,
            "estimated_diameter_max": 149.2931834393
        },
        "miles": {
            "estimated_diameter_min": 0.0414864197,
            "estimated_diameter_max": 0.0927664547
        },
        "feet": {
            "estimated_diameter_min": 219.0483710172,
            "estimated_diameter_max": 489.807047955
        }
    },
    "is_potentially_hazardous_asteroid": false,
    "close_approach_data": [
        {
            "close_approach_date": "2016-10-05",
            "close_approach_date_full": "2016-Oct-05 07:54",
            "epoch_date_close_approach": 1475654040000,
            "relative_velocity": {
                "kilometers_per_second": "13.6815791759",
                "kilometers_per_hour": "49253.6850333455",
                "miles_per_hour": "30604.3244586363"
            },
            "miss_distance": {
                "astronomical": "0.0924870368",
                "lunar": "35.9774573152",
                "kilometers": "13835863.707891616",
                "miles": "8597207.0502956608"
            },
            "orbiting_body": "Earth"
        },
        {
            "close_approach_date": "2017-02-19",
            "close_approach_date_full": "2017-Feb-19 14:30",
            "epoch_date_close_approach": 1487514600000,
            "relative_velocity": {
                "kilometers_per_second": "11.5924844791",
                "kilometers_per_hour": "41732.9441248792",
                "miles_per_hour": "25931.2285313728"
            },
            "miss_distance": {
                "astronomical": "0.397978676",
                "lunar": "154.813704964",
                "kilometers": "59536762.23502012",
                "miles": "36994428.598392856"
            },
            "orbiting_body": "Earth"
        }
    ],
    "orbital_data": {
        "orbit_id": "7",
        "orbit_determination_date": "2017-04-06 08:23:28",
        "first_observation_date": "2016-10-01",
        "last_observation_date": "2016-10-12",
        "data_arc_in_days": 11,
        "observations_used": 76,
        "orbit_uncertainty": "8",
        "minimum_orbit_intersection": ".083565",
        "jupiter_tisserand_invariant": "4.677",
        "epoch_osculation": "2457664.5",
        "eccentricity": ".2746902844358682",
        "semi_major_axis": "1.381621197960418",
        "inclination": "23.18912131268806",
        "ascending_node_longitude": "9.320432094936134",
        "orbital_period": "593.1737295057704",
        "perihelion_distance": "1.002103278110046",
        "perihelion_argument": "51.79037387785841",
        "aphelion_distance": "1.761139117810791",
        "perihelion_time": "2457710.459548253066",
        "mean_anomaly": "332.1069282941958",
        "mean_motion": ".6069048275282695",
        "equinox": "J2000",
        "orbit_class": {
            "orbit_class_type": "APO",
            "orbit_class_description": "Near-Earth asteroid orbits which cross the Earth’s orbit similar to that of 1862 Apollo",
            "orbit_class_range": "a (semi-major axis) > 1.0 AU; q (perihelion) < 1.017 AU"
        }
    },
    "is_sentry_object": false
}